#dP2024  7 21  0  0  0.00000000      96 __u+U IGS20 FIT  IAC
## 2324      0.00000000   900.00000000 60512 0.0000000000000
+  132   C01C02C03C04C05C06C07C08C09C10C11C12C13C14C16C19C20
+        C21C22C23C24C25C26C27C28C29C30C32C33C34C35C36C37C38
+        C39C40C41C42C43C44C45C59C60C62E02E03E04E05E06E07E08
+        E09E10E11E12E13E14E15E18E19E21E24E25E26E27E30E31E33
+        E34E36G01G02G03G04G05G06G07G08G09G10G11G12G13G14G15
+        G16G17G18G19G20G21G22G23G24G25G26G27G28G29G30G31G32
+        J02J03J04J07R01R02R03R04R05R06R07R08R09R10R11R12R13
+        R14R15R16R17R18R19R20R21R22R23R24R25R26  0  0  0  0
++        17 17 17 18 17  9 10 10  9 10  9  8  9  9  9  7  7
++         7  7  7  7  8  7  7  7  7  7  7  7  7  7  7  8  8
++         8  8  8  7  7  7  7 18  0 17  4  4  4  4  7  4  4
++         5  4  4  4  5  5  4  4  5  5  4  4  4  4  4  5  5
++         4  4 12  4  4  4  4  4  4  4  4  4  4  4  4  4  4
++         4  4  4  4  4  4  4  4  4  4  4  4  4  4  4  4  3
++        11 11 11 17  7  6  6  6  6 15  6  6  6 15  6  6  8
++         6  6  6  6  6  7  7  6  6 15  6  8  8  0  0  0  0
%c M  cc GPS ccc cccc cccc cccc cccc ccccc ccccc ccccc ccccc
%c cc cc ccc ccc cccc cccc cccc cccc ccccc ccccc ccccc ccccc
%f  0.0000000  0.000000000  0.00000000000  0.000000000000000
%f  0.0000000  0.000000000  0.00000000000  0.000000000000000
%i    0    0    0    0      0      0      0      0         0
%i    0    0    0    0      0      0      0      0         0
/* INFORMATION & ANALYSIS CENTER (IAC)            RAPID DATA
/* S/V CLOCKS ARE ALIGNED TO GNSS TIME                      
/* G:C1WC2W R:C1PC2P E:C1XC5X C:C2IC6I J:C1CC2S             
/* PCV:IGS20_2317 OL/AL:FES2004  NONE     YN ORB:CoN CLK:CoN
*  2024 07 21 10 15  0.00000000
PC01 -34344.596356  24449.780497    317.379596    909.451691
PC02   4380.107008  41917.608627   1947.842464    869.737974
PC03 -14876.624047  39463.238298   1062.787074    597.173857
PC04 -39602.501922  14429.854969   -106.535257   -671.571018
PC05  21917.231132  36002.711685   1585.643837   -587.329207
PC06  -4047.495497  37960.787386  18302.223731    610.685846
PC07 -10294.982289  26249.327765 -31251.480064   -531.135786
PC08 -17910.755295  33392.291608  18254.254687   -337.588803
PC09   2083.655630  41637.617328   8784.060824    -63.426058
PC10  -2757.177289  27353.204985 -31592.373954    -86.977260
PC11  11578.175267 -10423.463373  23218.648008    673.087770
PC12  20366.732040   8819.816209  16944.452284   -264.360168
PC13 -12418.694584  33694.708573  22018.835802    438.652629
PC14  22380.664787 -11219.400063 -12259.084472    913.222627
PC16  -4279.192761  37602.181572  19259.649091   -672.279164
PC19 -14244.098549  14677.028960  19015.751058   -919.734349
PC20 -26551.950783   6887.475091   5239.813525   -710.259814
PC21  23870.165641   5941.349147  13154.664504   -953.813534
PC22   7005.643512  14547.904407  22745.049644     67.414052
PC23   -247.117402 -24517.235958  13341.765534   -801.871996
PC24  18536.425773 -10084.939799 -18278.042771    876.028674
PC25  12404.185477 -24753.168987  -3579.746929    457.267577
PC26  13480.252620   9858.798394 -22367.637525   -322.889714
PC27 -20581.401684 -16284.898276  -9503.031176    343.761508
PC28 -12835.524706 -24054.195402   5971.178025    264.988913
PC29  -4425.077169  17924.393187 -20930.927294    311.109073
PC30 -18508.862684    602.982748 -20881.912147   -138.945903
PC32 -23885.601116  -5804.360983 -13223.392811   -679.223343
PC33  14206.706965 -14763.739373 -18940.412814   -962.202043
PC34  17708.271953  -2277.745864  21435.196840    481.803396
PC35  13400.254750  23651.830593  -6392.718783    307.637698
PC36 -12833.682976  24547.756973   3368.646950    141.525364
PC37 -13225.129111 -10232.483562  22359.486147   -919.968149
PC38 -23240.346851  34101.479960   8244.210672    168.506935
PC39  -7485.655829  33109.060356  25229.928066     -9.238577
PC40 -15279.927848  19649.869586 -34049.833787    -81.354534
PC41  -6084.379718 -14762.081270 -22842.002168   -939.585498
PC42  27038.678334  -5862.037079  -3463.445506   -454.874181
PC43   5363.460317 -17319.481345  21197.349960     79.581550
PC44  21217.962383  15591.312973   9261.555843    539.449086
PC45   -226.316286  24643.920266 -13064.912443   -107.144852
PC59 -32346.998875  27029.087070   1369.669176      0.178160
PC60      0.000000      0.000000      0.000000 999999.999999
PC62 -39644.265718  14369.180370   -865.629489     -0.843676
PE02  26513.973222 -11198.110267  -6935.893141    145.015235
PE03  24309.717628   -789.162939 -16862.244744   -128.383742
PE04  -7618.736387  15111.724560  24291.918355     11.188483
PE05  26262.624150  13642.611099    316.123521   4767.908123
PE06   2990.908031  19244.766741  22278.761091     -7.122177
PE07 -12553.000186 -20194.677386 -17633.809338   -132.278440
PE08   8483.234978 -14498.129630 -24372.688476   -306.293388
PE09  12478.782412  20099.976827  17778.335231   -523.438558
PE10  -1021.605379  29318.459228  -3915.941583   -642.173622
PE11   5589.073256  28325.560950   6526.379234   2301.948480
PE12  -6886.386266  25911.115562 -12567.513209  -1133.048790
PE13  -5266.136828 -28501.127286  -6010.537852    -23.168654
PE14   1529.410989 -17794.053397  19431.170267    125.733088
PE15   7162.980794 -25559.267523  13098.011271   -116.078055
PE18 -14211.096933  14207.081938 -22656.877547    347.333139
PE19 -25200.656194  -1003.359479  15506.948544    324.518459
PE21 -20258.788584  -4390.651014  21135.310830   -606.623118
PE24   1676.177584  18162.670546 -23319.054639   -885.907790
PE25  19960.976623   4739.239166 -21327.254330      7.128260
PE26 -14686.324514 -14181.480817 -21436.612719    518.555354
PE27  -1904.005580 -18029.250744  23405.384319   -405.859585
PE30  17429.045884 -20824.436273  11783.074796   -529.069708
PE31 -17344.507450  20858.048052 -11834.822885    -30.030276
PE33 -15291.476524   7107.487576 -24329.158234     13.944382
PE34  15176.737537  -7711.461284  24207.015448   -123.872673
PE36  14383.037892  14762.526861  21241.962368   -257.970396
PG01   4830.752745  15244.355787 -21536.981006    237.771021
PG02  14697.695674  -4435.439913  22134.026349   -394.828928
PG03  22886.310688 -12422.425913   4738.011465    467.351727
PG04  20871.754432  -2273.351213 -16335.867679    408.183544
PG05 -19730.859085    -32.180420 -18001.643199   -180.488464
PG06  -5105.991078 -25609.070615  -4467.509151    148.405796
PG07   6833.081131 -21854.406392 -12530.376512    -65.754348
PG08  25382.854856   5411.539182   6511.291736    283.478692
PG09  10784.698275 -11697.773732 -21360.591714    281.832877
PG10  -2063.581873  17658.287593  19828.755797    -71.812631
PG11 -12196.900401 -17035.607355 -16336.882870   -708.624028
PG12 -23870.868645   9127.086405   6860.704180   -524.019085
PG13 -22631.149222 -14141.108168    307.512125    665.943479
PG14   6092.302823 -19220.902610  17218.081973    453.878526
PG15 -25707.521842  -2480.854495   6084.728184    183.536105
PG16  17791.142372   5270.683348 -19497.262538   -230.666261
PG17  -3880.586512 -17535.178458  19934.257039    673.056463
PG18  -6740.229562  22295.847567 -12550.058971   -638.752148
PG19 -13139.638660 -18661.507877  13759.557061    513.500197
PG20 -12975.671411  -8490.561618 -21486.531829    372.531600
PG21  15908.390131   2584.178949  21673.403442    107.556959
PG22  -1431.791597 -16434.461910  21288.432764    -42.147174
PG23 -13538.319987  19771.904994  11246.167137    278.842315
PG24 -15470.074734   2115.795429  21066.589917   -483.972775
PG25 -19890.200983  17228.288268  -2683.935981    498.709903
PG26   7378.694852  14422.976027 -21162.316074    115.949658
PG27  22990.388622  13235.018072  -4024.826690    -31.606765
PG28   4834.000565  26042.563288  -1974.530441   -340.252535
PG29 -14686.480178   8088.891704 -20675.687964   -588.444053
PG30   -346.965751 -26217.329199  -3052.159332   -354.065686
PG31  10822.628696  20393.727079 -12998.120091   -226.591845
PG32   7093.294078  17526.878167  18947.334684   -610.981009
PJ02 -36516.806998  19010.388140  -4579.151223     -0.592321
PJ03 -19665.532553  27112.811981 -20909.680344     -1.268613
PJ04 -26679.515309  29439.981887  20276.535910     50.689017
PJ07 -25376.803301  33677.739807     26.448267     -0.060708
PR01  25078.205346   2483.851533   3900.493877     92.051056
PR02  21612.262677  -4555.123343 -12776.852342    -23.805558
PR03   5872.022499 -10258.539764 -22567.202002    104.140960
PR04 -12522.578381  -9975.625979 -19826.245741    246.187822
PR05 -24236.262803  -4604.099973  -6432.683565    134.840755
PR06 -20527.362270   6093.121883  13836.269897   -172.769260
PR07  -5004.801469  10396.908923  22781.701954     87.117246
PR08  12850.261072   9955.483209  19727.138663     -6.093629
PR09 -16272.731631  16324.052179  11043.674524    198.908521
PR10 -11860.565568  22231.566717  -3705.024886   -192.853637
PR11   -139.593397  17053.686020 -18961.913434     17.511215
PR12  12632.752525      9.623280 -22130.893865     42.705862
PR13  16474.432910 -14153.812583 -13383.407690    -49.619251
PR14  10649.871875 -22372.229048   6028.471884     26.718442
PR15  -1099.891276 -15982.564708  19871.174713     77.657481
PR16 -12437.334990    -78.853242  22291.874686     27.562927
PR17  -2055.160674 -20088.942847  15620.205572    106.538689
PR18 -11002.432907 -22987.621875    305.950488    153.041566
PR19 -14037.919898 -16118.599771 -13934.377946   -284.662702
PR20  -9374.750355   4505.129639 -23287.185395   -116.484106
PR21   1601.573893  19782.362661 -16006.683874   -119.336169
PR22  10971.691087  23013.558306    953.258537     84.617973
PR23  14437.342337  13264.738458  16303.816966   -127.449424
PR24   9331.002522  -5675.032368  23064.829863    -64.604249
PR25   1264.750272  20366.138182 -15287.501865    -97.488375
PR26  11492.429665  10117.154686  20412.457930      5.456241
EOF
